{
  "type": "FeatureCollection",
  "features": [
    {
      "type": "Feature",
      "properties": {
        "norad_id": 38867,
        "name": "INTELSAT 23 (IS-23)",
        "group": "intelsat",
        "lat": -0.013372120457738012,
        "lon": -47.13185498654515,
        "alt_km": 35787.7766757576,
        "timestamp": "2025-12-02T19:35:50.229564+00:00",
        "meta_object_name": "INTELSAT 23 (IS-23)",
        "meta_object_id": "2012-057A",
        "meta_epoch": "2025-12-02T08:23:48.492384",
        "meta_mean_motion": 1.00270434,
        "meta_eccentricity": 0.0001777,
        "meta_inclination": 0.0447,
        "meta_ra_of_asc_node": 122.8746,
        "meta_arg_of_pericenter": 90.0275,
        "meta_mean_anomaly": 291.5085,
        "meta_ephemeris_type": 0,
        "meta_classification_type": "U",
        "meta_norad_cat_id": 38867,
        "meta_element_set_no": 999,
        "meta_rev_at_epoch": 4798,
        "meta_bstar": 0,
        "meta_mean_motion_dot": -2.64e-06,
        "meta_mean_motion_ddot": 0,
        "tle_line1": "1 38867U 12057A   25336.34986681 -.00000264  00000+0  00000+0 0  9992",
        "tle_line2": "2 38867   0.0447 122.8746 0001777  90.0275 291.5085  1.00270434 47983"
      },
      "geometry": {
        "type": "Point",
        "coordinates": [
          -47.13185498654515,
          -0.013372120457738012
        ]
      }
    },
    {
      "type": "Feature",
      "properties": {
        "norad_id": 39360,
        "name": "FM-6",
        "group": "intelsat",
        "lat": 0.013250269714282432,
        "lon": -110.27407026447575,
        "alt_km": 35783.41880079509,
        "timestamp": "2025-12-02T19:35:50.229576+00:00",
        "meta_object_name": "FM-6",
        "meta_object_id": "2013-058A",
        "meta_epoch": "2025-12-02T10:37:38.766720",
        "meta_mean_motion": 1.00270976,
        "meta_eccentricity": 0.0002928,
        "meta_inclination": 0.006,
        "meta_ra_of_asc_node": 110.7073,
        "meta_arg_of_pericenter": 62.3341,
        "meta_mean_anomaly": 301.7644,
        "meta_ephemeris_type": 0,
        "meta_classification_type": "U",
        "meta_norad_cat_id": 39360,
        "meta_element_set_no": 999,
        "meta_rev_at_epoch": 4410,
        "meta_bstar": 0,
        "meta_mean_motion_dot": 4e-08,
        "meta_mean_motion_ddot": 0,
        "tle_line1": "1 39360U 13058A   25336.44280980  .00000004  00000+0  00000+0 0  9994",
        "tle_line2": "2 39360   0.0060 110.7073 0002928  62.3341 301.7644  1.00270976 44104"
      },
      "geometry": {
        "type": "Point",
        "coordinates": [
          -110.27407026447575,
          0.013250269714282432
        ]
      }
    },
    {
      "type": "Feature",
      "properties": {
        "norad_id": 40271,
        "name": "INTELSAT 30 (IS-30)",
        "group": "intelsat",
        "lat": -0.027344795924183804,
        "lon": -89.18682178880978,
        "alt_km": 35791.90141959285,
        "timestamp": "2025-12-02T19:35:50.229589+00:00",
        "meta_object_name": "INTELSAT 30 (IS-30)",
        "meta_object_id": "2014-062A",
        "meta_epoch": "2025-12-02T01:21:41.954976",
        "meta_mean_motion": 1.00274289,
        "meta_eccentricity": 0.00015346,
        "meta_inclination": 0.0117,
        "meta_ra_of_asc_node": 354.2124,
        "meta_arg_of_pericenter": 95.5309,
        "meta_mean_anomaly": 266.8075,
        "meta_ephemeris_type": 0,
        "meta_classification_type": "U",
        "meta_norad_cat_id": 40271,
        "meta_element_set_no": 999,
        "meta_rev_at_epoch": 480,
        "meta_bstar": 0,
        "meta_mean_motion_dot": -1.3e-06,
        "meta_mean_motion_ddot": 0,
        "tle_line1": "1 40271U 14062A   25336.05673559 -.00000130  00000+0  00000+0 0  9999",
        "tle_line2": "2 40271   0.0117 354.2124 0001534  95.5309 266.8075  1.00274289  4809"
      },
      "geometry": {
        "type": "Point",
        "coordinates": [
          -89.18682178880978,
          -0.027344795924183804
        ]
      }
    },
    {
      "type": "Feature",
      "properties": {
        "norad_id": 40333,
        "name": "DIRECTV 14",
        "group": "intelsat",
        "lat": -0.025318918073117026,
        "lon": -93.3734508431059,
        "alt_km": 35785.07581503824,
        "timestamp": "2025-12-02T19:35:50.229601+00:00",
        "meta_object_name": "DIRECTV 14",
        "meta_object_id": "2014-078B",
        "meta_epoch": "2025-12-02T08:59:15.225792",
        "meta_mean_motion": 1.00270629,
        "meta_eccentricity": 3.72e-05,
        "meta_inclination": 0.0093,
        "meta_ra_of_asc_node": 318.2125,
        "meta_arg_of_pericenter": 276.9162,
        "meta_mean_anomaly": 231.9434,
        "meta_ephemeris_type": 0,
        "meta_classification_type": "U",
        "meta_norad_cat_id": 40333,
        "meta_element_set_no": 999,
        "meta_rev_at_epoch": 4007,
        "meta_bstar": 0,
        "meta_mean_motion_dot": -1.05e-06,
        "meta_mean_motion_ddot": 0,
        "tle_line1": "1 40333U 14078B   25336.37448178 -.00000105  00000+0  00000+0 0  9999",
        "tle_line2": "2 40333   0.0093 318.2125 0000372 276.9162 231.9434  1.00270629 40078"
      },
      "geometry": {
        "type": "Point",
        "coordinates": [
          -93.3734508431059,
          -0.025318918073117026
        ]
      }
    },
    {
      "type": "Feature",
      "properties": {
        "norad_id": 40663,
        "name": "DIRECTV 15",
        "group": "intelsat",
        "lat": -0.02056301541205751,
        "lon": -97.0263902544276,
        "alt_km": 35785.58746897356,
        "timestamp": "2025-12-02T19:35:50.229612+00:00",
        "meta_object_name": "DIRECTV 15",
        "meta_object_id": "2015-026A",
        "meta_epoch": "2025-12-01T15:02:03.106176",
        "meta_mean_motion": 1.00270344,
        "meta_eccentricity": 2.258e-05,
        "meta_inclination": 0.0414,
        "meta_ra_of_asc_node": 104.2594,
        "meta_arg_of_pericenter": 141.9125,
        "meta_mean_anomaly": 307.2149,
        "meta_ephemeris_type": 0,
        "meta_classification_type": "U",
        "meta_norad_cat_id": 40663,
        "meta_element_set_no": 999,
        "meta_rev_at_epoch": 3848,
        "meta_bstar": 0,
        "meta_mean_motion_dot": -8.1e-07,
        "meta_mean_motion_ddot": 0,
        "tle_line1": "1 40663U 15026A   25335.62642484 -.00000081  00000+0  00000+0 0  9995",
        "tle_line2": "2 40663   0.0414 104.2594 0000225 141.9125 307.2149  1.00270344 38487"
      },
      "geometry": {
        "type": "Point",
        "coordinates": [
          -97.0263902544276,
          -0.02056301541205751
        ]
      }
    },
    {
      "type": "Feature",
      "properties": {
        "norad_id": 40664,
        "name": "SKY MEXICO-1",
        "group": "intelsat",
        "lat": -0.015039359935609013,
        "lon": -72.89762548247167,
        "alt_km": 35775.996606720095,
        "timestamp": "2025-12-02T19:35:50.229624+00:00",
        "meta_object_name": "SKY MEXICO-1",
        "meta_object_id": "2015-026B",
        "meta_epoch": "2025-12-02T08:16:26.697216",
        "meta_mean_motion": 1.00270882,
        "meta_eccentricity": 0.0002666,
        "meta_inclination": 0.0119,
        "meta_ra_of_asc_node": 311.2402,
        "meta_arg_of_pericenter": 312.9093,
        "meta_mean_anomaly": 212.6569,
        "meta_ephemeris_type": 0,
        "meta_classification_type": "U",
        "meta_norad_cat_id": 40664,
        "meta_element_set_no": 999,
        "meta_rev_at_epoch": 3848,
        "meta_bstar": 0,
        "meta_mean_motion_dot": -2.14e-06,
        "meta_mean_motion_ddot": 0,
        "tle_line1": "1 40664U 15026B   25336.34475344 -.00000214  00000+0  00000+0 0  9993",
        "tle_line2": "2 40664   0.0119 311.2402 0002666 312.9093 212.6569  1.00270882 38485"
      },
      "geometry": {
        "type": "Point",
        "coordinates": [
          -72.89762548247167,
          -0.015039359935609013
        ]
      }
    },
    {
      "type": "Feature",
      "properties": {
        "norad_id": 40874,
        "name": "INTELSAT 34 (IS-34)",
        "group": "intelsat",
        "lat": 0.005041928738552112,
        "lon": -49.64516790513071,
        "alt_km": 35788.600758962304,
        "timestamp": "2025-12-02T19:35:50.229636+00:00",
        "meta_object_name": "INTELSAT 34 (IS-34)",
        "meta_object_id": "2015-039A",
        "meta_epoch": "2025-12-02T08:23:03.564384",
        "meta_mean_motion": 1.00270875,
        "meta_eccentricity": 6.32e-05,
        "meta_inclination": 0.016,
        "meta_ra_of_asc_node": 296.7802,
        "meta_arg_of_pericenter": 227.0125,
        "meta_mean_anomaly": 337.9324,
        "meta_ephemeris_type": 0,
        "meta_classification_type": "U",
        "meta_norad_cat_id": 40874,
        "meta_element_set_no": 999,
        "meta_rev_at_epoch": 3765,
        "meta_bstar": 0,
        "meta_mean_motion_dot": -2.65e-06,
        "meta_mean_motion_ddot": 0,
        "tle_line1": "1 40874U 15039A   25336.34934681 -.00000265  00000+0  00000+0 0  9990",
        "tle_line2": "2 40874   0.0160 296.7802 0000632 227.0125 337.9324  1.00270875 37658"
      },
      "geometry": {
        "type": "Point",
        "coordinates": [
          -49.64516790513071,
          0.005041928738552112
        ]
      }
    }
  ]
}